start=new Date('2023-05-04T00:00:00.000Z').valueOf();
sats=[{"OBJECT_ID":"2020-025BA","OBJECT_NAME":"STARLINK-1332","BSTAR":"0.00013880000000","MEAN_MOTION":"15.06395064","CENTER_NAME":"EARTH","MEAN_MOTION_DOT":"0.00001786","REV_AT_EPOCH":"16919","MEAN_ELEMENT_THEORY":"SGP4","RA_OF_ASC_NODE":"29.1807","OBJECT_TYPE":"PAYLOAD","APOAPSIS":"548.083","ELEMENT_SET_NO":"999","ECCENTRICITY":"0.00012330","INCLINATION":"53.0550","NORAD_CAT_ID":"45579","SITE":"AFETR","RCS_SIZE":"LARGE","CLASSIFICATION_TYPE":"U","DECAY_DATE":null,"EPOCH":"2023-05-03T21:01:16.919328","MEAN_MOTION_DDOT":"0.0000000000000","GP_ID":"231194915","PERIOD":"95.592","FILE":"3900281","PERIAPSIS":"546.375","TLE_LINE2":"2 45579  53.0550  29.1807 0001233  84.2094 275.9036 15.06395064169190","LAUNCH_DATE":"2020-04-22","SEMIMAJOR_AXIS":"6925.364","ARG_OF_PERICENTER":"84.2094","TLE_LINE1":"1 45579U 20025BA  23123.87589027  .00001786  00000-0  13880-3 0  9991","REF_FRAME":"TEME","COUNTRY_CODE":"US","EPHEMERIS_TYPE":"0","MEAN_ANOMALY":"275.9036","TIME_SYSTEM":"UTC"},{"LAUNCH_DATE":"2020-04-22","SEMIMAJOR_AXIS":"6925.365","ARG_OF_PERICENTER":"115.8672","TLE_LINE1":"1 45580U 20025BB  23123.87495093  .00002905  00000-0  21388-3 0  9998","REF_FRAME":"TEME","COUNTRY_CODE":"US","EPHEMERIS_TYPE":"0","MEAN_ANOMALY":"244.2481","TIME_SYSTEM":"UTC","ECCENTRICITY":"0.00015900","INCLINATION":"53.0546","NORAD_CAT_ID":"45580","SITE":"AFETR","RCS_SIZE":"LARGE","CLASSIFICATION_TYPE":"U","DECAY_DATE":null,"EPOCH":"2023-05-03T20:59:55.760352","MEAN_MOTION_DDOT":"0.0000000000000","FILE":"3900281","GP_ID":"231195165","PERIOD":"95.592","PERIAPSIS":"546.129","TLE_LINE2":"2 45580  53.0546  79.0158 0001590 115.8672 244.2481 15.06394753168498","MEAN_MOTION_DOT":"0.00002905","REV_AT_EPOCH":"16849","MEAN_ELEMENT_THEORY":"SGP4","RA_OF_ASC_NODE":"79.0158","OBJECT_TYPE":"PAYLOAD","APOAPSIS":"548.331","ELEMENT_SET_NO":"999","OBJECT_ID":"2020-025BB","OBJECT_NAME":"STARLINK-1333","BSTAR":"0.00021388000000","MEAN_MOTION":"15.06394753","CENTER_NAME":"EARTH"},{"ECCENTRICITY":"0.00012240","INCLINATION":"53.0537","NORAD_CAT_ID":"45581","SITE":"AFETR","RCS_SIZE":"LARGE","DECAY_DATE":null,"CLASSIFICATION_TYPE":"U","EPOCH":"2023-05-03T21:06:33.420672","MEAN_MOTION_DDOT":"0.0000000000000","GP_ID":"231195416","PERIOD":"95.592","FILE":"3900281","PERIAPSIS":"546.375","TLE_LINE2":"2 45581  53.0537  68.9946 0001224 106.3601 253.7522 15.06396910168636","LAUNCH_DATE":"2020-04-22","SEMIMAJOR_AXIS":"6925.358","ARG_OF_PERICENTER":"106.3601","TLE_LINE1":"1 45581U 20025BC  23123.87955348 -.00001709  00000-0 -95872-4 0  9996","REF_FRAME":"TEME","COUNTRY_CODE":"US","EPHEMERIS_TYPE":"0","MEAN_ANOMALY":"253.7522","TIME_SYSTEM":"UTC","OBJECT_ID":"2020-025BC","OBJECT_NAME":"STARLINK-1335","BSTAR":"-0.00009587200000","MEAN_MOTION":"15.06396910","CENTER_NAME":"EARTH","MEAN_MOTION_DOT":"-0.00001709","RA_OF_ASC_NODE":"68.9946","REV_AT_EPOCH":"16863","MEAN_ELEMENT_THEORY":"SGP4","OBJECT_TYPE":"PAYLOAD","APOAPSIS":"548.071","ELEMENT_SET_NO":"999"},{"OBJECT_NAME":"STARLINK-1337","OBJECT_ID":"2020-025BD","MEAN_MOTION":"15.06392127","CENTER_NAME":"EARTH","BSTAR":"0.00006847700000","OBJECT_TYPE":"PAYLOAD","MEAN_MOTION_DOT":"0.00000738","MEAN_ELEMENT_THEORY":"SGP4","RA_OF_ASC_NODE":"69.1899","REV_AT_EPOCH":"16862","ELEMENT_SET_NO":"999","APOAPSIS":"548.218","MEAN_MOTION_DDOT":"0.0000000000000","FILE":"3900281","GP_ID":"231196163","PERIOD":"95.593","SITE":"AFETR","RCS_SIZE":"LARGE","DECAY_DATE":null,"EPOCH":"2023-05-03T20:02:52.297728","CLASSIFICATION_TYPE":"U","INCLINATION":"53.0548","NORAD_CAT_ID":"45582","ECCENTRICITY":"0.00014160","TLE_LINE2":"2 45582  53.0548  69.1899 0001416 100.3853 259.7296 15.06392127168624","PERIAPSIS":"546.257","REF_FRAME":"TEME","ARG_OF_PERICENTER":"100.3853","TLE_LINE1":"1 45582U 20025BD  23123.83532752  .00000738  00000-0  68477-4 0  9993","SEMIMAJOR_AXIS":"6925.373","LAUNCH_DATE":"2020-04-22","TIME_SYSTEM":"UTC","EPHEMERIS_TYPE":"0","MEAN_ANOMALY":"259.7296","COUNTRY_CODE":"US"},{"EPHEMERIS_TYPE":"0","MEAN_ANOMALY":"269.5645","COUNTRY_CODE":"US","TIME_SYSTEM":"UTC","SEMIMAJOR_AXIS":"6925.357","LAUNCH_DATE":"2020-04-22","REF_FRAME":"TEME","TLE_LINE1":"1 45583U 20025BE  23123.88323742  .00003803  00000-0  27406-3 0  9998","ARG_OF_PERICENTER":"90.5478","PERIAPSIS":"546.414","TLE_LINE2":"2 45583  53.0542  68.9758 0001166  90.5478 269.5645 15.06397336168630","NORAD_CAT_ID":"45583","INCLINATION":"53.0542","ECCENTRICITY":"0.00011660","FILE":"3900281","GP_ID":"231194416","PERIOD":"95.592","MEAN_MOTION_DDOT":"0.0000000000000","CLASSIFICATION_TYPE":"U","DECAY_DATE":null,"EPOCH":"2023-05-03T21:11:51.713088","RCS_SIZE":"LARGE","SITE":"AFETR","APOAPSIS":"548.029","ELEMENT_SET_NO":"999","MEAN_ELEMENT_THEORY":"SGP4","REV_AT_EPOCH":"16863","RA_OF_ASC_NODE":"68.9758","MEAN_MOTION_DOT":"0.00003803","OBJECT_TYPE":"PAYLOAD","CENTER_NAME":"EARTH","MEAN_MOTION":"15.06397336","BSTAR":"0.00027406000000","OBJECT_NAME":"STARLINK-1340","OBJECT_ID":"2020-025BE"},{"MEAN_MOTION":"15.62687760","CENTER_NAME":"EARTH","BSTAR":"0.00721770000000","OBJECT_NAME":"STARLINK-1343","OBJECT_ID":"2020-025BF","ELEMENT_SET_NO":"999","APOAPSIS":"380.713","OBJECT_TYPE":"PAYLOAD","MEAN_MOTION_DOT":"0.00720665","MEAN_ELEMENT_THEORY":"SGP4","RA_OF_ASC_NODE":"63.2199","REV_AT_EPOCH":"16812","TLE_LINE2":"2 45584  53.0505  63.2199 0001205  99.3729 119.5165 15.62687760168127","PERIAPSIS":"379.085","MEAN_MOTION_DDOT":"0.0000000000000","FILE":"3900076","GP_ID":"231170667","PERIOD":"92.149","RCS_SIZE":"LARGE","SITE":"AFETR","EPOCH":"2023-05-03T22:00:00.999936","DECAY_DATE":null,"CLASSIFICATION_TYPE":"U","INCLINATION":"53.0505","NORAD_CAT_ID":"45584","ECCENTRICITY":"0.00012050","TIME_SYSTEM":"UTC","MEAN_ANOMALY":"119.5165","EPHEMERIS_TYPE":"0","COUNTRY_CODE":"US","REF_FRAME":"TEME","ARG_OF_PERICENTER":"99.3729","TLE_LINE1":"1 45584U 20025BF  23123.91667824  .00720665  00000-0  72177-2 0  9991","SEMIMAJOR_AXIS":"6758.034","LAUNCH_DATE":"2020-04-22"},{"OBJECT_NAME":"STARLINK-1347","OBJECT_ID":"2020-025BH","MEAN_MOTION":"15.06431086","CENTER_NAME":"EARTH","BSTAR":"0.00106080000000","OBJECT_TYPE":"PAYLOAD","MEAN_MOTION_DOT":"0.00015568","RA_OF_ASC_NODE":"71.9024","MEAN_ELEMENT_THEORY":"SGP4","REV_AT_EPOCH":"16852","ELEMENT_SET_NO":"999","APOAPSIS":"548.022","MEAN_MOTION_DDOT":"0.0000000000000","GP_ID":"231162140","PERIOD":"95.590","FILE":"3899966","RCS_SIZE":"LARGE","SITE":"AFETR","CLASSIFICATION_TYPE":"U","DECAY_DATE":null,"EPOCH":"2023-05-03T05:32:22.802208","INCLINATION":"53.0550","NORAD_CAT_ID":"45586","ECCENTRICITY":"0.00013050","TLE_LINE2":"2 45586  53.0550  71.9024 0001305  85.0219 275.0919 15.06431086168524","PERIAPSIS":"546.215","REF_FRAME":"TEME","ARG_OF_PERICENTER":"85.0219","TLE_LINE1":"1 45586U 20025BH  23123.23081947  .00015568  00000-0  10608-2 0  9994","SEMIMAJOR_AXIS":"6925.253","LAUNCH_DATE":"2020-04-22","TIME_SYSTEM":"UTC","EPHEMERIS_TYPE":"0","MEAN_ANOMALY":"275.0919","COUNTRY_CODE":"US"},{"BSTAR":"0.00045005000000","CENTER_NAME":"EARTH","MEAN_MOTION":"15.06402758","OBJECT_ID":"2020-025BJ","OBJECT_NAME":"STARLINK-1349","ELEMENT_SET_NO":"999","APOAPSIS":"548.071","OBJECT_TYPE":"PAYLOAD","REV_AT_EPOCH":"16803","RA_OF_ASC_NODE":"69.0615","MEAN_ELEMENT_THEORY":"SGP4","MEAN_MOTION_DOT":"0.00006429","TLE_LINE2":"2 45587  53.0541  69.0615 0001250  92.4707 267.6425 15.06402758168031","PERIAPSIS":"546.339","DECAY_DATE":null,"CLASSIFICATION_TYPE":"U","EPOCH":"2023-05-03T20:45:19.836288","RCS_SIZE":"LARGE","SITE":"AFETR","FILE":"3900088","GP_ID":"231171687","PERIOD":"95.592","MEAN_MOTION_DDOT":"0.0000000000000","ECCENTRICITY":"0.00012500","NORAD_CAT_ID":"45587","INCLINATION":"53.0541","TIME_SYSTEM":"UTC","COUNTRY_CODE":"US","EPHEMERIS_TYPE":"0","MEAN_ANOMALY":"267.6425","TLE_LINE1":"1 45587U 20025BJ  23123.86481292  .00006429  00000-0  45005-3 0  9997","ARG_OF_PERICENTER":"92.4707","REF_FRAME":"TEME","LAUNCH_DATE":"2020-04-22","SEMIMAJOR_AXIS":"6925.340"},{"GP_ID":"231163136","FILE":"3899966","PERIOD":"95.594","MEAN_MOTION_DDOT":"0.0000000000000","DECAY_DATE":null,"CLASSIFICATION_TYPE":"U","EPOCH":"2023-05-03T05:53:39.701760","SITE":"AFETR","RCS_SIZE":"LARGE","NORAD_CAT_ID":"45588","INCLINATION":"53.0542","ECCENTRICITY":"0.00012610","TLE_LINE2":"2 45588  53.0542  71.8429 0001261  95.5088 264.6045 15.06370470168530","PERIAPSIS":"546.431","REF_FRAME":"TEME","TLE_LINE1":"1 45588U 20025BK  23123.24559840  .00022430  00000-0  15211-2 0  9990","ARG_OF_PERICENTER":"95.5088","SEMIMAJOR_AXIS":"6925.439","LAUNCH_DATE":"2020-04-22","TIME_SYSTEM":"UTC","MEAN_ANOMALY":"264.6045","EPHEMERIS_TYPE":"0","COUNTRY_CODE":"US","OBJECT_NAME":"STARLINK-1360","OBJECT_ID":"2020-025BK","CENTER_NAME":"EARTH","MEAN_MOTION":"15.06370470","BSTAR":"0.00152110000000","OBJECT_TYPE":"PAYLOAD","MEAN_ELEMENT_THEORY":"SGP4","REV_AT_EPOCH":"16853","RA_OF_ASC_NODE":"71.8429","MEAN_MOTION_DOT":"0.00022430","ELEMENT_SET_NO":"999","APOAPSIS":"548.177"},{"MEAN_MOTION_DOT":"0.00001499","MEAN_ELEMENT_THEORY":"SGP4","RA_OF_ASC_NODE":"69.1760","REV_AT_EPOCH":"16802","OBJECT_TYPE":"PAYLOAD","APOAPSIS":"548.413","ELEMENT_SET_NO":"999","OBJECT_ID":"2020-025BL","OBJECT_NAME":"STARLINK-1364","BSTAR":"0.00011954000000","MEAN_MOTION":"15.06395162","CENTER_NAME":"EARTH","LAUNCH_DATE":"2020-04-22","SEMIMAJOR_AXIS":"6925.363","ARG_OF_PERICENTER":"104.2314","TLE_LINE1":"1 45589U 20025BL  23123.83901245  .00001499  00000-0  11954-3 0  9999","REF_FRAME":"TEME","COUNTRY_CODE":"US","EPHEMERIS_TYPE":"0","MEAN_ANOMALY":"255.8865","TIME_SYSTEM":"UTC","ECCENTRICITY":"0.00017110","INCLINATION":"53.0538","NORAD_CAT_ID":"45589","SITE":"AFETR","RCS_SIZE":"LARGE","DECAY_DATE":null,"CLASSIFICATION_TYPE":"U","EPOCH":"2023-05-03T20:08:10.675680","MEAN_MOTION_DDOT":"0.0000000000000","FILE":"3900065","GP_ID":"231170976","PERIOD":"95.592","PERIAPSIS":"546.043","TLE_LINE2":"2 45589  53.0538  69.1760 0001711 104.2314 255.8865 15.06395162168025"}];
